{
  "type": "FeatureCollection",
  "features": [
    {
      "type": "Feature",
      "properties": {
        "norad_id": 41890,
        "name": "CYGFM07",
        "group": "weather",
        "lat": -34.070403347552286,
        "lon": -119.93683346382501,
        "alt_km": 411.26610813957996,
        "timestamp": "2025-12-18T08:58:43.034982+00:00",
        "meta_object_name": "CYGFM07",
        "meta_object_id": "2016-078G",
        "meta_epoch": "2025-12-17T16:24:53.722368",
        "meta_mean_motion": 15.50206503,
        "meta_eccentricity": 0.00101447,
        "meta_inclination": 34.9484,
        "meta_ra_of_asc_node": 349.0318,
        "meta_arg_of_pericenter": 257.747,
        "meta_mean_anomaly": 102.2117,
        "meta_ephemeris_type": 0,
        "meta_classification_type": "U",
        "meta_norad_cat_id": 41890,
        "meta_element_set_no": 999,
        "meta_rev_at_epoch": 50072,
        "meta_bstar": 0.00031461083,
        "meta_mean_motion_dot": 0.00018354,
        "meta_mean_motion_ddot": 0,
        "tle_line1": "1 41890U 16078G   25351.68395512  .00018354  00000+0  31461-3 0  9997",
        "tle_line2": "2 41890  34.9484 349.0318 0010144 257.7470 102.2117 15.50206503500721"
      },
      "geometry": {
        "type": "Point",
        "coordinates": [
          -119.93683346382501,
          -34.070403347552286
        ]
      }
    },
    {
      "type": "Feature",
      "properties": {
        "norad_id": 41891,
        "name": "CYGFM03",
        "group": "weather",
        "lat": 34.9216355944235,
        "lon": 77.27404818885176,
        "alt_km": 416.12969765746584,
        "timestamp": "2025-12-18T08:58:43.034992+00:00",
        "meta_object_name": "CYGFM03",
        "meta_object_id": "2016-078H",
        "meta_epoch": "2025-12-17T09:24:14.472288",
        "meta_mean_motion": 15.50092545,
        "meta_eccentricity": 0.00096623,
        "meta_inclination": 34.9438,
        "meta_ra_of_asc_node": 352.869,
        "meta_arg_of_pericenter": 243.4739,
        "meta_mean_anomaly": 116.4992,
        "meta_ephemeris_type": 0,
        "meta_classification_type": "U",
        "meta_norad_cat_id": 41891,
        "meta_element_set_no": 999,
        "meta_rev_at_epoch": 50065,
        "meta_bstar": 0.00032562614,
        "meta_mean_motion_dot": 0.00018919,
        "meta_mean_motion_ddot": 0,
        "tle_line1": "1 41891U 16078H   25351.39183417  .00018919  00000+0  32563-3 0  9996",
        "tle_line2": "2 41891  34.9438 352.8690 0009662 243.4739 116.4992 15.50092545500658"
      },
      "geometry": {
        "type": "Point",
        "coordinates": [
          77.27404818885176,
          34.9216355944235
        ]
      }
    },
    {
      "type": "Feature",
      "properties": {
        "norad_id": 43010,
        "name": "FENGYUN 3D",
        "group": "weather",
        "lat": -11.959951452320762,
        "lon": -39.31003714664697,
        "alt_km": 831.593162515007,
        "timestamp": "2025-12-18T08:58:43.035002+00:00",
        "meta_object_name": "FENGYUN 3D",
        "meta_object_id": "2017-072A",
        "meta_epoch": "2025-12-17T22:53:12.432768",
        "meta_mean_motion": 14.19686682,
        "meta_eccentricity": 0.00011919,
        "meta_inclination": 98.9889,
        "meta_ra_of_asc_node": 318.3418,
        "meta_arg_of_pericenter": 166.2596,
        "meta_mean_anomaly": 193.8613,
        "meta_ephemeris_type": 0,
        "meta_classification_type": "U",
        "meta_norad_cat_id": 43010,
        "meta_element_set_no": 999,
        "meta_rev_at_epoch": 41927,
        "meta_bstar": 0.00016305888,
        "meta_mean_motion_dot": 2.99e-06,
        "meta_mean_motion_ddot": 0,
        "tle_line1": "1 43010U 17072A   25351.95361612  .00000299  00000+0  16306-3 0  9992",
        "tle_line2": "2 43010  98.9889 318.3418 0001191 166.2596 193.8613 14.19686682419271"
      },
      "geometry": {
        "type": "Point",
        "coordinates": [
          -39.31003714664697,
          -11.959951452320762
        ]
      }
    },
    {
      "type": "Feature",
      "properties": {
        "norad_id": 43013,
        "name": "NOAA 20 (JPSS-1)",
        "group": "weather",
        "lat": 42.26235099316742,
        "lon": 116.66432244327201,
        "alt_km": 822.6532755983844,
        "timestamp": "2025-12-18T08:58:43.035013+00:00",
        "meta_object_name": "NOAA 20 (JPSS-1)",
        "meta_object_id": "2017-073A",
        "meta_epoch": "2025-12-17T20:29:37.849056",
        "meta_mean_motion": 14.1952711,
        "meta_eccentricity": 0.000214,
        "meta_inclination": 98.7604,
        "meta_ra_of_asc_node": 288.0948,
        "meta_arg_of_pericenter": 79.7653,
        "meta_mean_anomaly": 280.3764,
        "meta_ephemeris_type": 0,
        "meta_classification_type": "U",
        "meta_norad_cat_id": 43013,
        "meta_element_set_no": 999,
        "meta_rev_at_epoch": 41874,
        "meta_bstar": 5.5150707e-05,
        "meta_mean_motion_dot": 7.2e-07,
        "meta_mean_motion_ddot": 0,
        "tle_line1": "1 43013U 17073A   25351.85391029  .00000072  00000+0  55151-4 0  9991",
        "tle_line2": "2 43013  98.7604 288.0948 0002140  79.7653 280.3764 14.19527110418745"
      },
      "geometry": {
        "type": "Point",
        "coordinates": [
          116.66432244327201,
          42.26235099316742
        ]
      }
    },
    {
      "type": "Feature",
      "properties": {
        "norad_id": 43226,
        "name": "GOES 17",
        "group": "weather",
        "lat": 0.33865421219375075,
        "lon": 132.38601070678757,
        "alt_km": 35797.26412574623,
        "timestamp": "2025-12-18T08:58:43.035028+00:00",
        "meta_object_name": "GOES 17",
        "meta_object_id": "2018-022A",
        "meta_epoch": "2025-12-17T14:36:45.154080",
        "meta_mean_motion": 1.00271176,
        "meta_eccentricity": 0.00030884,
        "meta_inclination": 0.4705,
        "meta_ra_of_asc_node": 89.1479,
        "meta_arg_of_pericenter": 190.7704,
        "meta_mean_anomaly": 296.2551,
        "meta_ephemeris_type": 0,
        "meta_classification_type": "U",
        "meta_norad_cat_id": 43226,
        "meta_element_set_no": 999,
        "meta_rev_at_epoch": 2860,
        "meta_bstar": 0,
        "meta_mean_motion_dot": -1.58e-06,
        "meta_mean_motion_ddot": 0,
        "tle_line1": "1 43226U 18022A   25351.60885595 -.00000158  00000+0  00000+0 0  9995",
        "tle_line2": "2 43226   0.4705  89.1479 0003088 190.7704 296.2551  1.00271176 28601"
      },
      "geometry": {
        "type": "Point",
        "coordinates": [
          132.38601070678757,
          0.33865421219375075
        ]
      }
    },
    {
      "type": "Feature",
      "properties": {
        "norad_id": 43491,
        "name": "FENGYUN 2H",
        "group": "weather",
        "lat": -1.6696828220391051,
        "lon": -58.741649067040385,
        "alt_km": 35780.32340357053,
        "timestamp": "2025-12-18T08:58:43.035041+00:00",
        "meta_object_name": "FENGYUN 2H",
        "meta_object_id": "2018-050A",
        "meta_epoch": "2025-12-17T20:24:44.057088",
        "meta_mean_motion": 1.00271379,
        "meta_eccentricity": 0.00024352,
        "meta_inclination": 2.5638,
        "meta_ra_of_asc_node": 81.2757,
        "meta_arg_of_pericenter": 166.1367,
        "meta_mean_anomaly": 224.8475,
        "meta_ephemeris_type": 0,
        "meta_classification_type": "U",
        "meta_norad_cat_id": 43491,
        "meta_element_set_no": 999,
        "meta_rev_at_epoch": 2762,
        "meta_bstar": 0,
        "meta_mean_motion_dot": -1.07e-06,
        "meta_mean_motion_ddot": 0,
        "tle_line1": "1 43491U 18050A   25351.85050992 -.00000107  00000+0  00000+0 0  9996",
        "tle_line2": "2 43491   2.5638  81.2757 0002435 166.1367 224.8475  1.00271379 27620"
      },
      "geometry": {
        "type": "Point",
        "coordinates": [
          -58.741649067040385,
          -1.6696828220391051
        ]
      }
    },
    {
      "type": "Feature",
      "properties": {
        "norad_id": 43689,
        "name": "METOP-C",
        "group": "weather",
        "lat": -41.82529290328155,
        "lon": 57.926065215898504,
        "alt_km": 826.6416640586494,
        "timestamp": "2025-12-18T08:58:43.035052+00:00",
        "meta_object_name": "METOP-C",
        "meta_object_id": "2018-087A",
        "meta_epoch": "2025-12-17T21:21:09.013824",
        "meta_mean_motion": 14.21486342,
        "meta_eccentricity": 9.998e-05,
        "meta_inclination": 98.6924,
        "meta_ra_of_asc_node": 49.5804,
        "meta_arg_of_pericenter": 29.7701,
        "meta_mean_anomaly": 330.3533,
        "meta_ephemeris_type": 0,
        "meta_classification_type": "U",
        "meta_norad_cat_id": 43689,
        "meta_element_set_no": 999,
        "meta_rev_at_epoch": 36907,
        "meta_bstar": 7.6065109e-05,
        "meta_mean_motion_dot": 1.23e-06,
        "meta_mean_motion_ddot": 0,
        "tle_line1": "1 43689U 18087A   25351.88968766  .00000123  00000+0  76065-4 0  9991",
        "tle_line2": "2 43689  98.6924  49.5804 0000999  29.7701 330.3533 14.21486342369073"
      },
      "geometry": {
        "type": "Point",
        "coordinates": [
          57.926065215898504,
          -41.82529290328155
        ]
      }
    }
  ]
}